[{"OBJECT_NAME":"STARLINK-31704","OBJECT_ID":"2024-076Y","EPOCH":"2026-03-09T22:00:01.999584","MEAN_MOTION":15.30892355,"ECCENTRICITY":0.00079744,"INCLINATION":42.9978,"RA_OF_ASC_NODE":323.2923,"ARG_OF_PERICENTER":240.5046,"MEAN_ANOMALY":200.4144,"EPHEMERIS_TYPE":0,"CLASSIFICATION_TYPE":"U","NORAD_CAT_ID":59586,"ELEMENT_SET_NO":999,"REV_AT_EPOCH":581,"BSTAR":0.0024766131,"MEAN_MOTION_DOT":0.00076042,"MEAN_MOTION_DDOT":0},{"OBJECT_NAME":"STARLINK-34276","OBJECT_ID":"2025-120H","EPOCH":"2026-03-09T09:36:09.634464","MEAN_MOTION":15.30204066,"ECCENTRICITY":0.00012033,"INCLINATION":53.1586,"RA_OF_ASC_NODE":117.9046,"ARG_OF_PERICENTER":90.2666,"MEAN_ANOMALY":269.8472,"EPHEMERIS_TYPE":0,"CLASSIFICATION_TYPE":"U","NORAD_CAT_ID":64263,"ELEMENT_SET_NO":999,"REV_AT_EPOCH":4387,"BSTAR":0.00051970913,"MEAN_MOTION_DOT":0.00015066,"MEAN_MOTION_DDOT":0}]
